CCSDS_OMM_VERS = 2.0
CREATION_DATE  = 
ORIGINATOR     = 

OBJECT_NAME    = OKEAN-3
OBJECT_ID      = 1991-039A
CENTER_NAME    = EARTH
REF_FRAME      = TEME
TIME_SYSTEM    = UTC
MEAN_ELEMENT_THEORY = SGP/SGP4

EPOCH          = 2025-11-18T09:33:30.059712
MEAN_MOTION    = 15.03888014
ECCENTRICITY   = .0014238
INCLINATION    = 82.5160
RA_OF_ASC_NODE = 84.6007
ARG_OF_PERICENTER = 355.6402
MEAN_ANOMALY   = 4.4698

EPHEMERIS_TYPE = 0
CLASSIFICATION_TYPE = U
NORAD_CAT_ID   = 21397
ELEMENT_SET_NO = 999
REV_AT_EPOCH   = 84830
BSTAR          = .30703E-3
MEAN_MOTION_DOT = .4264E-4
MEAN_MOTION_DDOT = 0

CCSDS_OMM_VERS = 2.0
CREATION_DATE  = 
ORIGINATOR     = 

OBJECT_NAME    = COSMOS 2151
OBJECT_ID      = 1991-042A
CENTER_NAME    = EARTH
REF_FRAME      = TEME
TIME_SYSTEM    = UTC
MEAN_ELEMENT_THEORY = SGP/SGP4

EPOCH          = 2025-11-18T11:14:55.978944
MEAN_MOTION    = 14.99568859
ECCENTRICITY   = .0014106
INCLINATION    = 82.4981
RA_OF_ASC_NODE = 190.8884
ARG_OF_PERICENTER = 76.2070
MEAN_ANOMALY   = 284.0722

EPHEMERIS_TYPE = 0
CLASSIFICATION_TYPE = U
NORAD_CAT_ID   = 21422
ELEMENT_SET_NO = 999
REV_AT_EPOCH   = 84652
BSTAR          = .18494E-3
MEAN_MOTION_DOT = .2304E-4
MEAN_MOTION_DDOT = 0

CCSDS_OMM_VERS = 2.0
CREATION_DATE  = 
ORIGINATOR     = 

OBJECT_NAME    = SL-14 R/B
OBJECT_ID      = 1991-042B
CENTER_NAME    = EARTH
REF_FRAME      = TEME
TIME_SYSTEM    = UTC
MEAN_ELEMENT_THEORY = SGP/SGP4

EPOCH          = 2025-11-18T11:18:08.745120
MEAN_MOTION    = 14.81707589
ECCENTRICITY   = .0015606
INCLINATION    = 82.4916
RA_OF_ASC_NODE = 324.4844
ARG_OF_PERICENTER = 244.3556
MEAN_ANOMALY   = 115.6047

EPHEMERIS_TYPE = 0
CLASSIFICATION_TYPE = U
NORAD_CAT_ID   = 21423
ELEMENT_SET_NO = 999
REV_AT_EPOCH   = 83660
BSTAR          = .77172E-4
MEAN_MOTION_DOT = .632E-5
MEAN_MOTION_DDOT = 0

CCSDS_OMM_VERS = 2.0
CREATION_DATE  = 
ORIGINATOR     = 

OBJECT_NAME    = ERS-1
OBJECT_ID      = 1991-050A
CENTER_NAME    = EARTH
REF_FRAME      = TEME
TIME_SYSTEM    = UTC
MEAN_ELEMENT_THEORY = SGP/SGP4

EPOCH          = 2025-11-18T11:25:20.517888
MEAN_MOTION    = 14.39338692
ECCENTRICITY   = .0032196
INCLINATION    = 98.7917
RA_OF_ASC_NODE = 332.9225
ARG_OF_PERICENTER = 170.3823
MEAN_ANOMALY   = 189.7987

EPHEMERIS_TYPE = 0
CLASSIFICATION_TYPE = U
NORAD_CAT_ID   = 21574
ELEMENT_SET_NO = 999
REV_AT_EPOCH   = 79973
BSTAR          = .1668E-3
MEAN_MOTION_DOT = .475E-5
MEAN_MOTION_DDOT = 0

CCSDS_OMM_VERS = 2.0
CREATION_DATE  = 
ORIGINATOR     = 

OBJECT_NAME    = ARIANE 40 R/B
OBJECT_ID      = 1991-050F
CENTER_NAME    = EARTH
REF_FRAME      = TEME
TIME_SYSTEM    = UTC
MEAN_ELEMENT_THEORY = SGP/SGP4

EPOCH          = 2025-11-18T04:00:42.548832
MEAN_MOTION    = 14.42784388
ECCENTRICITY   = .0004104
INCLINATION    = 98.2203
RA_OF_ASC_NODE = 13.4807
ARG_OF_PERICENTER = 64.3632
MEAN_ANOMALY   = 295.7982

EPHEMERIS_TYPE = 0
CLASSIFICATION_TYPE = U
NORAD_CAT_ID   = 21610
ELEMENT_SET_NO = 999
REV_AT_EPOCH   = 80291
BSTAR          = .17599E-3
MEAN_MOTION_DOT = .545E-5
MEAN_MOTION_DDOT = 0

CCSDS_OMM_VERS = 2.0
CREATION_DATE  = 
ORIGINATOR     = 

OBJECT_NAME    = INTERCOSMOS 25
OBJECT_ID      = 1991-086A
CENTER_NAME    = EARTH
REF_FRAME      = TEME
TIME_SYSTEM    = UTC
MEAN_ELEMENT_THEORY = SGP/SGP4

EPOCH          = 2025-11-18T06:42:34.079040
MEAN_MOTION    = 12.11622187
ECCENTRICITY   = .1487953
INCLINATION    = 82.6086
RA_OF_ASC_NODE = 17.3628
ARG_OF_PERICENTER = 357.1358
MEAN_ANOMALY   = 2.1833

EPHEMERIS_TYPE = 0
CLASSIFICATION_TYPE = U
NORAD_CAT_ID   = 21819
ELEMENT_SET_NO = 999
REV_AT_EPOCH   = 48319
BSTAR          = .41683E-3
MEAN_MOTION_DOT = .2124E-4
MEAN_MOTION_DDOT = 0

CCSDS_OMM_VERS = 2.0
CREATION_DATE  = 
ORIGINATOR     = 

OBJECT_NAME    = SL-8 R/B
OBJECT_ID      = 1992-008B
CENTER_NAME    = EARTH
REF_FRAME      = TEME
TIME_SYSTEM    = UTC
MEAN_ELEMENT_THEORY = SGP/SGP4

EPOCH          = 2025-11-18T04:11:00.967200
MEAN_MOTION    = 13.75951342
ECCENTRICITY   = .0036131
INCLINATION    = 82.9276
RA_OF_ASC_NODE = 350.7197
ARG_OF_PERICENTER = 86.5120
MEAN_ANOMALY   = 338.9616

EPHEMERIS_TYPE = 0
CLASSIFICATION_TYPE = U
NORAD_CAT_ID   = 21876
ELEMENT_SET_NO = 999
REV_AT_EPOCH   = 69408
BSTAR          = .12824E-3
MEAN_MOTION_DOT = .14E-5
MEAN_MOTION_DDOT = 0

CCSDS_OMM_VERS = 2.0
CREATION_DATE  = 
ORIGINATOR     = 

OBJECT_NAME    = SL-8 R/B
OBJECT_ID      = 1992-020B
CENTER_NAME    = EARTH
REF_FRAME      = TEME
TIME_SYSTEM    = UTC
MEAN_ELEMENT_THEORY = SGP/SGP4

EPOCH          = 2025-11-18T06:20:55.912128
MEAN_MOTION    = 13.75522770
ECCENTRICITY   = .0027686
INCLINATION    = 82.9315
RA_OF_ASC_NODE = 236.4901
ARG_OF_PERICENTER = 248.3448
MEAN_ANOMALY   = 221.5269

EPHEMERIS_TYPE = 0
CLASSIFICATION_TYPE = U
NORAD_CAT_ID   = 21938
ELEMENT_SET_NO = 999
REV_AT_EPOCH   = 68581
BSTAR          = .84736E-4
MEAN_MOTION_DOT = .97E-6
MEAN_MOTION_DDOT = 0

CCSDS_OMM_VERS = 2.0
CREATION_DATE  = 
ORIGINATOR     = 

OBJECT_NAME    = USA 81
OBJECT_ID      = 1992-023A
CENTER_NAME    = EARTH
REF_FRAME      = TEME
TIME_SYSTEM    = UTC
MEAN_ELEMENT_THEORY = SGP/SGP4

EPOCH          = 2025-11-18T03:55:57.720000
MEAN_MOTION    = 14.32314721
ECCENTRICITY   = .0002464
INCLINATION    = 85.0104
RA_OF_ASC_NODE = 195.7472
ARG_OF_PERICENTER = 71.6432
MEAN_ANOMALY   = 288.5028

EPHEMERIS_TYPE = 0
CLASSIFICATION_TYPE = U
NORAD_CAT_ID   = 21949
ELEMENT_SET_NO = 999
REV_AT_EPOCH   = 7882
BSTAR          = .90914E-4
MEAN_MOTION_DOT = .265E-5
MEAN_MOTION_DDOT = 0

CCSDS_OMM_VERS = 2.0
CREATION_DATE  = 
ORIGINATOR     = 

OBJECT_NAME    = COSMOS 2219
OBJECT_ID      = 1992-076A
CENTER_NAME    = EARTH
REF_FRAME      = TEME
TIME_SYSTEM    = UTC
MEAN_ELEMENT_THEORY = SGP/SGP4

EPOCH          = 2025-11-18T05:58:19.295616
MEAN_MOTION    = 14.14067694
ECCENTRICITY   = .0018046
INCLINATION    = 71.0611
RA_OF_ASC_NODE = 251.0254
ARG_OF_PERICENTER = 2.0479
MEAN_ANOMALY   = 358.0714

EPHEMERIS_TYPE = 0
CLASSIFICATION_TYPE = U
NORAD_CAT_ID   = 22219
ELEMENT_SET_NO = 999
REV_AT_EPOCH   = 70262
BSTAR          = .3116E-5
MEAN_MOTION_DOT = -.41E-6
MEAN_MOTION_DDOT = 0

CCSDS_OMM_VERS = 2.0
CREATION_DATE  = 
ORIGINATOR     = 

OBJECT_NAME    = SL-16 R/B
OBJECT_ID      = 1992-076B
CENTER_NAME    = EARTH
REF_FRAME      = TEME
TIME_SYSTEM    = UTC
MEAN_ELEMENT_THEORY = SGP/SGP4

EPOCH          = 2025-11-18T12:05:56.331744
MEAN_MOTION    = 14.16835604
ECCENTRICITY   = .0015241
INCLINATION    = 71.0008
RA_OF_ASC_NODE = 62.5815
ARG_OF_PERICENTER = 265.5687
MEAN_ANOMALY   = 170.8452

EPHEMERIS_TYPE = 0
CLASSIFICATION_TYPE = U
NORAD_CAT_ID   = 22220
ELEMENT_SET_NO = 999
REV_AT_EPOCH   = 70608
BSTAR          = -.35715E-4
MEAN_MOTION_DOT = -.12E-5
MEAN_MOTION_DDOT = 0

CCSDS_OMM_VERS = 2.0
CREATION_DATE  = 
ORIGINATOR     = 

OBJECT_NAME    = COSMOS 2221
OBJECT_ID      = 1992-080A
CENTER_NAME    = EARTH
REF_FRAME      = TEME
TIME_SYSTEM    = UTC
MEAN_ELEMENT_THEORY = SGP/SGP4

EPOCH          = 2025-11-18T06:22:07.574880
MEAN_MOTION    = 14.95632460
ECCENTRICITY   = .0014073
INCLINATION    = 82.5069
RA_OF_ASC_NODE = 25.7463
ARG_OF_PERICENTER = 201.4604
MEAN_ANOMALY   = 158.6029

EPHEMERIS_TYPE = 0
CLASSIFICATION_TYPE = U
NORAD_CAT_ID   = 22236
ELEMENT_SET_NO = 999
REV_AT_EPOCH   = 76413
BSTAR          = .26095E-3
MEAN_MOTION_DOT = .2929E-4
MEAN_MOTION_DDOT = 0

