OKEAN-3                 
1 21397U 91039A   25322.39826458  .00004264  00000+0  30703-3 0  9994
2 21397  82.5160  84.6007 0014238 355.6402   4.4698 15.03888014848306
COSMOS 2151             
1 21422U 91042A   25322.46870346  .00002304  00000+0  18494-3 0  9996
2 21422  82.4981 190.8884 0014106  76.2070 284.0722 14.99568859846521
SL-14 R/B               
1 21423U 91042B   25322.47093455  .00000632  00000+0  77172-4 0  9997
2 21423  82.4916 324.4844 0015606 244.3556 115.6047 14.81707589836607
ERS-1                   
1 21574U 91050A   25322.47593192  .00000475  00000+0  16680-3 0  9997
2 21574  98.7917 332.9225 0032196 170.3823 189.7987 14.39338692799735
ARIANE 40 R/B           
1 21610U 91050F   25322.16715914  .00000545  00000+0  17599-3 0  9990
2 21610  98.2203  13.4807 0004104  64.3632 295.7982 14.42784389802914
INTERCOSMOS 25          
1 21819U 91086A   25322.27956110  .00002124  00000+0  41683-3 0  9993
2 21819  82.6086  17.3628 1487953 357.1358   2.1833 12.11622187483192
SL-8 R/B                
1 21876U 92008B   25322.17431675  .00000140  00000+0  12824-3 0  9995
2 21876  82.9276 350.7197 0036130  86.5120 338.9616 13.75951342694080
SL-8 R/B                
1 21938U 92020B   25322.26453602  .00000097  00000+0  84736-4 0  9995
2 21938  82.9315 236.4901 0027686 248.3448 221.5269 13.75522770685814
USA 81                  
1 21949U 92023A   25322.16386250  .00000265  00000+0  90914-4 0  9995
2 21949  85.0104 195.7472 0002464  71.6432 288.5028 14.32314721 78825
COSMOS 2219             
1 22219U 92076A   25322.24883444 -.00000041  00000+0  31160-5 0  9992
2 22219  71.0611 251.0254 0018046   2.0479 358.0714 14.14067694702621
SL-16 R/B               
1 22220U 92076B   25322.50412421 -.00000120  00000+0 -35715-4 0  9994
2 22220  71.0008  62.5815 0015241 265.5687 170.8452 14.16835604706081
COSMOS 2221             
1 22236U 92080A   25322.26536545  .00002929  00000+0  26095-3 0  9990
2 22236  82.5069  25.7463 0014073 201.4604 158.6029 14.95632460764138
